[{"OBJECT_NAME":"STARLINK-5501","OBJECT_ID":"2023-021W","EPOCH":"2026-03-09T17:03:16.033536","MEAN_MOTION":14.98328021,"ECCENTRICITY":0.00030894,"INCLINATION":70.0012,"RA_OF_ASC_NODE":184.4395,"ARG_OF_PERICENTER":264.3482,"MEAN_ANOMALY":95.7325,"EPHEMERIS_TYPE":0,"CLASSIFICATION_TYPE":"U","NORAD_CAT_ID":55648,"ELEMENT_SET_NO":999,"REV_AT_EPOCH":16879,"BSTAR":-4.4075747e-5,"MEAN_MOTION_DOT":-6.19e-6,"MEAN_MOTION_DDOT":0},{"OBJECT_NAME":"HYPSO-2","OBJECT_ID":"2024-149BR","EPOCH":"2026-03-09T15:24:17.277696","MEAN_MOTION":14.98259029,"ECCENTRICITY":0.00013898,"INCLINATION":97.6894,"RA_OF_ASC_NODE":146.3679,"ARG_OF_PERICENTER":74.8032,"MEAN_ANOMALY":285.3344,"EPHEMERIS_TYPE":0,"CLASSIFICATION_TYPE":"U","NORAD_CAT_ID":60531,"ELEMENT_SET_NO":999,"REV_AT_EPOCH":8514,"BSTAR":0.00033979817,"MEAN_MOTION_DOT":3.981e-5,"MEAN_MOTION_DDOT":0}]
